[{"OBJECT_NAME":"STARLINK-36849","OBJECT_ID":"2026-057L","EPOCH":"2026-03-29T04:00:01.999584","MEAN_MOTION":16.01947472,"ECCENTRICITY":0.0001263,"INCLINATION":97.2795,"RA_OF_ASC_NODE":211.3248,"ARG_OF_PERICENTER":50.6103,"MEAN_ANOMALY":314.7841,"EPHEMERIS_TYPE":0,"CLASSIFICATION_TYPE":"U","NORAD_CAT_ID":68304,"ELEMENT_SET_NO":999,"REV_AT_EPOCH":234,"BSTAR":-0.0020468,"MEAN_MOTION_DOT":-0.01154371,"MEAN_MOTION_DDOT":0.00043711},{"OBJECT_NAME":"STARLINK-36277","OBJECT_ID":"2026-057M","EPOCH":"2026-03-29T04:00:01.999584","MEAN_MOTION":16.02152894,"ECCENTRICITY":0.0001343,"INCLINATION":97.2791,"RA_OF_ASC_NODE":211.3269,"ARG_OF_PERICENTER":52.2794,"MEAN_ANOMALY":318.7176,"EPHEMERIS_TYPE":0,"CLASSIFICATION_TYPE":"U","NORAD_CAT_ID":68305,"ELEMENT_SET_NO":999,"REV_AT_EPOCH":250,"BSTAR":-0.0019983,"MEAN_MOTION_DOT":-0.01140677,"MEAN_MOTION_DDOT":0.00042858},{"OBJECT_NAME":"STARLINK-36307","OBJECT_ID":"2026-057N","EPOCH":"2026-03-29T04:00:01.999584","MEAN_MOTION":16.02048355,"ECCENTRICITY":0.0001324,"INCLINATION":97.2794,"RA_OF_ASC_NODE":211.3258,"ARG_OF_PERICENTER":55.3057,"MEAN_ANOMALY":312.4052,"EPHEMERIS_TYPE":0,"CLASSIFICATION_TYPE":"U","NORAD_CAT_ID":68306,"ELEMENT_SET_NO":999,"REV_AT_EPOCH":244,"BSTAR":-0.0020293,"MEAN_MOTION_DOT":-0.01151261,"MEAN_MOTION_DDOT":0.00043544},{"OBJECT_NAME":"STARLINK-36264","OBJECT_ID":"2026-057P","EPOCH":"2026-03-29T04:00:01.999584","MEAN_MOTION":16.02303898,"ECCENTRICITY":0.0001386,"INCLINATION":97.2792,"RA_OF_ASC_NODE":211.3286,"ARG_OF_PERICENTER":55.8358,"MEAN_ANOMALY":318.6461,"EPHEMERIS_TYPE":0,"CLASSIFICATION_TYPE":"U","NORAD_CAT_ID":68307,"ELEMENT_SET_NO":999,"REV_AT_EPOCH":250,"BSTAR":-0.0020199,"MEAN_MOTION_DOT":-0.01162967,"MEAN_MOTION_DDOT":0.00044497},{"OBJECT_NAME":"STARLINK-37138","OBJECT_ID":"2026-057Q","EPOCH":"2026-03-29T04:00:01.999584","MEAN_MOTION":16.02395503,"ECCENTRICITY":0.0001345,"INCLINATION":97.2786,"RA_OF_ASC_NODE":211.3288,"ARG_OF_PERICENTER":59.4577,"MEAN_ANOMALY":317.0279,"EPHEMERIS_TYPE":0,"CLASSIFICATION_TYPE":"U","NORAD_CAT_ID":68308,"ELEMENT_SET_NO":999,"REV_AT_EPOCH":217,"BSTAR":-0.0020018,"MEAN_MOTION_DOT":-0.01158737,"MEAN_MOTION_DDOT":0.00044245},{"OBJECT_NAME":"STARLINK-37149","OBJECT_ID":"2026-057R","EPOCH":"2026-03-29T04:00:01.999584","MEAN_MOTION":16.02511355,"ECCENTRICITY":0.0001367,"INCLINATION":97.2784,"RA_OF_ASC_NODE":211.3299,"ARG_OF_PERICENTER":54.9348,"MEAN_ANOMALY":324.1474,"EPHEMERIS_TYPE":0,"CLASSIFICATION_TYPE":"U","NORAD_CAT_ID":68309,"ELEMENT_SET_NO":999,"REV_AT_EPOCH":228,"BSTAR":-0.0019933,"MEAN_MOTION_DOT":-0.01161623,"MEAN_MOTION_DDOT":0.00044509},{"OBJECT_NAME":"STARLINK-37148","OBJECT_ID":"2026-057S","EPOCH":"2026-03-29T04:00:01.999584","MEAN_MOTION":16.02745728,"ECCENTRICITY":0.0001432,"INCLINATION":97.2782,"RA_OF_ASC_NODE":211.3323,"ARG_OF_PERICENTER":58.0193,"MEAN_ANOMALY":326.5034,"EPHEMERIS_TYPE":0,"CLASSIFICATION_TYPE":"U","NORAD_CAT_ID":68310,"ELEMENT_SET_NO":999,"REV_AT_EPOCH":239,"BSTAR":-0.0019644,"MEAN_MOTION_DOT":-0.01160607,"MEAN_MOTION_DDOT":0.00044558},{"OBJECT_NAME":"STARLINK-37140","OBJECT_ID":"2026-057T","EPOCH":"2026-03-29T04:00:01.999584","MEAN_MOTION":16.0263299,"ECCENTRICITY":0.0001317,"INCLINATION":97.2784,"RA_OF_ASC_NODE":211.3314,"ARG_OF_PERICENTER":53.941,"MEAN_ANOMALY":328.0271,"EPHEMERIS_TYPE":0,"CLASSIFICATION_TYPE":"U","NORAD_CAT_ID":68311,"ELEMENT_SET_NO":999,"REV_AT_EPOCH":255,"BSTAR":-0.0019774,"MEAN_MOTION_DOT":-0.01160536,"MEAN_MOTION_DDOT":0.00044495},{"OBJECT_NAME":"STARLINK-36854","OBJECT_ID":"2026-057U","EPOCH":"2026-03-29T04:00:01.999584","MEAN_MOTION":16.02869121,"ECCENTRICITY":0.0001428,"INCLINATION":97.2782,"RA_OF_ASC_NODE":211.3337,"ARG_OF_PERICENTER":52.3621,"MEAN_ANOMALY":334.5975,"EPHEMERIS_TYPE":0,"CLASSIFICATION_TYPE":"U","NORAD_CAT_ID":68312,"ELEMENT_SET_NO":999,"REV_AT_EPOCH":234,"BSTAR":-0.0019341,"MEAN_MOTION_DOT":-0.01151049,"MEAN_MOTION_DDOT":0.00043945},{"OBJECT_NAME":"STARLINK-36815","OBJECT_ID":"2026-057V","EPOCH":"2026-03-29T04:00:01.999584","MEAN_MOTION":16.02983193,"ECCENTRICITY":0.0001294,"INCLINATION":97.2784,"RA_OF_ASC_NODE":211.3352,"ARG_OF_PERICENTER":52.8223,"MEAN_ANOMALY":337.1565,"EPHEMERIS_TYPE":0,"CLASSIFICATION_TYPE":"U","NORAD_CAT_ID":68313,"ELEMENT_SET_NO":999,"REV_AT_EPOCH":234,"BSTAR":-0.0019318,"MEAN_MOTION_DOT":-0.0115733,"MEAN_MOTION_DDOT":0.00044449},{"OBJECT_NAME":"STARLINK-37155","OBJECT_ID":"2026-057W","EPOCH":"2026-03-29T04:00:01.999584","MEAN_MOTION":16.03257647,"ECCENTRICITY":0.0001428,"INCLINATION":97.2779,"RA_OF_ASC_NODE":211.3377,"ARG_OF_PERICENTER":55.6516,"MEAN_ANOMALY":340.5778,"EPHEMERIS_TYPE":0,"CLASSIFICATION_TYPE":"U","NORAD_CAT_ID":68314,"ELEMENT_SET_NO":999,"REV_AT_EPOCH":239,"BSTAR":-0.0019083,"MEAN_MOTION_DOT":-0.01161812,"MEAN_MOTION_DDOT":0.00044911},{"OBJECT_NAME":"STARLINK-37150","OBJECT_ID":"2026-057X","EPOCH":"2026-03-28T20:00:01.999872","MEAN_MOTION":16.03920378,"ECCENTRICITY":0.0001205,"INCLINATION":97.2786,"RA_OF_ASC_NODE":210.9705,"ARG_OF_PERICENTER":87.5524,"MEAN_ANOMALY":182.8305,"EPHEMERIS_TYPE":0,"CLASSIFICATION_TYPE":"U","NORAD_CAT_ID":68315,"ELEMENT_SET_NO":999,"REV_AT_EPOCH":233,"BSTAR":-0.0018333935,"MEAN_MOTION_DOT":-0.01160866,"MEAN_MOTION_DDOT":0.0004519457},{"OBJECT_NAME":"STARLINK-37154","OBJECT_ID":"2026-057Y","EPOCH":"2026-03-28T20:00:01.999872","MEAN_MOTION":16.04322357,"ECCENTRICITY":0.0001048,"INCLINATION":97.278,"RA_OF_ASC_NODE":210.9743,"ARG_OF_PERICENTER":74.8273,"MEAN_ANOMALY":204.3137,"EPHEMERIS_TYPE":0,"CLASSIFICATION_TYPE":"U","NORAD_CAT_ID":68316,"ELEMENT_SET_NO":999,"REV_AT_EPOCH":223,"BSTAR":-0.0017737026,"MEAN_MOTION_DOT":-0.01150392,"MEAN_MOTION_DDOT":0.00044656503},{"OBJECT_NAME":"STARLINK-37139","OBJECT_ID":"2026-057Z","EPOCH":"2026-03-28T20:00:01.999872","MEAN_MOTION":16.04191338,"ECCENTRICITY":0.00011309,"INCLINATION":97.2782,"RA_OF_ASC_NODE":210.9729,"ARG_OF_PERICENTER":81.7529,"MEAN_ANOMALY":194.4132,"EPHEMERIS_TYPE":0,"CLASSIFICATION_TYPE":"U","NORAD_CAT_ID":68317,"ELEMENT_SET_NO":999,"REV_AT_EPOCH":208,"BSTAR":-0.0018088844,"MEAN_MOTION_DOT":-0.01163941,"MEAN_MOTION_DDOT":0.00045562517},{"OBJECT_NAME":"STARLINK-37113","OBJECT_ID":"2026-057AA","EPOCH":"2026-03-28T20:00:01.999872","MEAN_MOTION":16.04468956,"ECCENTRICITY":9.647e-5,"INCLINATION":97.2782,"RA_OF_ASC_NODE":210.9756,"ARG_OF_PERICENTER":70.5301,"MEAN_ANOMALY":211.7389,"EPHEMERIS_TYPE":0,"CLASSIFICATION_TYPE":"U","NORAD_CAT_ID":68318,"ELEMENT_SET_NO":999,"REV_AT_EPOCH":233,"BSTAR":-0.0017595285,"MEAN_MOTION_DOT":-0.01151235,"MEAN_MOTION_DDOT":0.00044795303},{"OBJECT_NAME":"PROGRESS-MS 33","OBJECT_ID":"2026-058A","EPOCH":"2026-03-29T03:11:03.043104","MEAN_MOTION":15.4862434,"ECCENTRICITY":0.0006215,"INCLINATION":51.6344,"RA_OF_ASC_NODE":336.2407,"ARG_OF_PERICENTER":245.2164,"MEAN_ANOMALY":114.8178,"EPHEMERIS_TYPE":0,"CLASSIFICATION_TYPE":"U","NORAD_CAT_ID":68319,"ELEMENT_SET_NO":999,"REV_AT_EPOCH":81,"BSTAR":0.00023326,"MEAN_MOTION_DOT":0.0001226,"MEAN_MOTION_DDOT":0}]
